[{"OBJECT_NAME":"STARLINK-1502","OBJECT_ID":"2020-038AL","EPOCH":"2026-03-09T16:28:40.129248","MEAN_MOTION":15.47123466,"ECCENTRICITY":0.00027286,"INCLINATION":53.0523,"RA_OF_ASC_NODE":206.0601,"ARG_OF_PERICENTER":10.3487,"MEAN_ANOMALY":349.7575,"EPHEMERIS_TYPE":0,"CLASSIFICATION_TYPE":"U","NORAD_CAT_ID":45764,"ELEMENT_SET_NO":999,"REV_AT_EPOCH":31663,"BSTAR":0.0018007606,"MEAN_MOTION_DOT":0.00093492,"MEAN_MOTION_DDOT":0},{"OBJECT_NAME":"FLOCK 4G-16","OBJECT_ID":"2025-009AF","EPOCH":"2026-03-09T16:24:08.859168","MEAN_MOTION":15.48160181,"ECCENTRICITY":0.00015351,"INCLINATION":97.3918,"RA_OF_ASC_NODE":155.5159,"ARG_OF_PERICENTER":253.888,"MEAN_ANOMALY":106.2201,"EPHEMERIS_TYPE":0,"CLASSIFICATION_TYPE":"U","NORAD_CAT_ID":62638,"ELEMENT_SET_NO":999,"REV_AT_EPOCH":6403,"BSTAR":0.0012441051,"MEAN_MOTION_DOT":0.00065741,"MEAN_MOTION_DDOT":0}]
